COMMENT,ORIGINATOR,NORAD_CAT_ID,OBJECT_NAME,OBJECT_TYPE,CLASSIFICATION_TYPE,INTLDES,EPOCH,EPOCH_MICROSECONDS,MEAN_MOTION,ECCENTRICITY,INCLINATION,RA_OF_ASC_NODE,ARG_OF_PERICENTER,MEAN_ANOMALY,EPHEMERIS_TYPE,ELEMENT_SET_NO,REV_AT_EPOCH,BSTAR,MEAN_MOTION_DOT,MEAN_MOTION_DDOT,FILE,TLE_LINE0,TLE_LINE1,TLE_LINE2,OBJECT_ID,OBJECT_NUMBER,SEMIMAJOR_AXIS,PERIOD,APOGEE,PERIGEE,DECAYED,date
GENERATED VIA SPACETRACK.ORG API,18 SPCS,48886,SPACEBEE-102,PAYLOAD,U,21059H,2023/2/22 8:50,441056,15.22976726,0.0007442,97.579,188.1082,314.0881,45.9742,0,999,9185,0.00112,0.00026335,0,3824148,0 SPACEBEE-102,1 48886U 21059H   23053.36831529  .00026335  00000-0  11200-2 0  9996,2 48886  97.5790 188.1082 0007442 314.0881  45.9742 15.22976726 91854,2021-059H,48886,6875.005,94.552,501.986,491.753,0,2023/4/26
GENERATED VIA SPACETRACK.ORG API,18 SPCS,48886,SPACEBEE-102,PAYLOAD,U,21059H,2023/2/22 21:27,726528,15.23006843,0.0007385,97.579,188.6384,311.9754,48.0852,0,999,9193,0.0011433,0.00026911,0,3825529,0 SPACEBEE-102,1 48886U 21059H   23053.89393202  .00026911  00000-0  11433-2 0  9993,2 48886  97.5790 188.6384 0007385 311.9754  48.0852 15.23006843 91935,2021-059H,48886,6874.914,94.55,501.856,491.702,0,2023/4/27
GENERATED VIA SPACETRACK.ORG API,18 SPCS,48886,SPACEBEE-102,PAYLOAD,U,21059H,2023/2/23 2:11,467200,15.23017433,0.0007427,97.5789,188.8374,311.1803,48.8792,0,999,9196,0.0011838,0.00027879,0,3826726,0 SPACEBEE-102,1 48886U 21059H   23054.09103550  .00027879  00000-0  11838-2 0  9994,2 48886  97.5789 188.8374 0007427 311.1803  48.8792 15.23017433 91969,2021-059H,48886,6874.882,94.549,501.853,491.641,0,2023/4/28
GENERATED VIA SPACETRACK.ORG API,18 SPCS,48886,SPACEBEE-102,PAYLOAD,U,21059H,2023/2/23 8:29,618752,15.23034818,0.000742,97.5788,189.1027,310.4755,49.5834,0,999,9200,0.0012962,0.0003056,0,3828819,0 SPACEBEE-102,1 48886U 21059H   23054.35383818  .00030560  00000-0  12962-2 0  9990,2 48886  97.5788 189.1027 0007420 310.4755  49.5834 15.23034818 92005,2021-059H,48886,6874.83,94.548,501.796,491.594,0,2023/4/29
GENERATED VIA SPACETRACK.ORG API,18 SPCS,48886,SPACEBEE-102,PAYLOAD,U,21059H,2023/2/23 19:31,808544,15.23059722,0.0007424,97.5787,189.5666,308.2808,51.7759,0,999,9207,0.0011382,0.00026832,0,3830532,0 SPACEBEE-102,1 48886U 21059H   23054.81373621  .00026832  00000-0  11382-2 0  9994,2 48886  97.5787 189.5666 0007424 308.2808  51.7759 15.23059722 92074,2021-059H,48886,6874.755,94.547,501.724,491.516,0,2023/4/30
GENERATED VIA SPACETRACK.ORG API,18 SPCS,48886,SPACEBEE-102,PAYLOAD,U,21059H,2023/2/24 3:24,694464,15.23079575,0.0007444,97.5789,189.8985,307.1015,52.9541,0,999,9212,0.0013052,0.00030814,0,3831298,0 SPACEBEE-102,1 48886U 21059H   23055.14223026  .00030814  00000-0  13052-2 0  9995,2 48886  97.5789 189.8985 0007444 307.1015  52.9541 15.23079575 92129,2021-059H,48886,6874.695,94.545,501.678,491.443,0,
GENERATED VIA SPACETRACK.ORG API,18 SPCS,48886,SPACEBEE-102,PAYLOAD,U,21059H,2023/2/24 8:08,622976,15.23091176,0.0007444,97.5787,190.0974,306.688,53.3672,0,999,9215,0.0012313,0.00029069,0,3832867,0 SPACEBEE-102,1 48886U 21059H   23055.33932434  .00029069  00000-0  12313-2 0  9995,2 48886  97.5787 190.0974 0007444 306.6880  53.3672 15.23091176 92157,2021-059H,48886,6874.66,94.545,501.643,491.408,0,
GENERATED VIA SPACETRACK.ORG API,18 SPCS,48886,SPACEBEE-102,PAYLOAD,U,21059H,2023/2/24 14:27,691936,15.23101801,0.0007429,97.5787,190.3623,305.4675,54.5867,0,999,9219,0.0010071,0.00023753,0,3835059,0 SPACEBEE-102,1 48886U 21059H   23055.60211449  .00023753  00000-0  10071-2 0  9994,2 48886  97.5787 190.3623 0007429 305.4675  54.5867 15.23101801 92193,2021-059H,48886,6874.628,94.544,501.6,491.386,0,
GENERATED VIA SPACETRACK.ORG API,18 SPCS,48886,SPACEBEE-102,PAYLOAD,U,21059H,2023/2/24 22:20,801120,15.23117249,0.0007444,97.5787,190.694,304.0284,56.0245,0,999,9224,0.00093682,0.00022095,0,3835821,0 SPACEBEE-102,1 48886U 21059H   23055.93059955  .00022095  00000-0  93682-3 0  9990,2 48886  97.5787 190.6940 0007444 304.0284  56.0245 15.23117249 92242,2021-059H,48886,6874.582,94.543,501.564,491.329,0,
GENERATED VIA SPACETRACK.ORG API,18 SPCS,48886,SPACEBEE-102,PAYLOAD,U,21059H,2023/2/25 7:47,728480,15.23137657,0.0007476,97.5787,191.092,302.849,57.2027,0,999,9230,0.0010306,0.00024337,0,3837605,0 SPACEBEE-102,1 48886U 21059H   23056.32477695  .00024337  00000-0  10306-2 0  9991,2 48886  97.5787 191.0920 0007476 302.8490  57.2027 15.23137657 92308,2021-059H,48886,6874.52,94.542,501.525,491.246,0,
GENERATED VIA SPACETRACK.ORG API,18 SPCS,48886,SPACEBEE-102,PAYLOAD,U,21059H,2023/2/25 20:24,257632,15.23167814,0.0007441,97.5787,191.6223,300.7017,59.3485,0,999,9238,0.0012066,0.00028547,0,3839003,0 SPACEBEE-102,1 48886U 21059H   23056.85033863  .00028547  00000-0  12066-2 0  9996,2 48886  97.5787 191.6223 0007441 300.7017  59.3485 15.23167814 92381,2021-059H,48886,6874.43,94.54,501.41,491.179,0,
GENERATED VIA SPACETRACK.ORG API,18 SPCS,48886,SPACEBEE-102,PAYLOAD,U,21059H,2023/2/26 4:17,121792,15.23187769,0.0007432,97.5788,191.9543,299.8865,60.1633,0,999,9243,0.0013339,0.00031597,0,3839758,0 SPACEBEE-102,1 48886U 21059H   23057.17880928  .00031597  00000-0  13339-2 0  9997,2 48886  97.5788 191.9543 0007432 299.8865  60.1633 15.23187769 92431,2021-059H,48886,6874.37,94.539,501.344,491.126,0,
GENERATED VIA SPACETRACK.ORG API,18 SPCS,48886,SPACEBEE-102,PAYLOAD,U,21059H,2023/2/26 7:26,955136,15.2319634,0.0007442,97.5788,192.0869,299.455,60.5944,0,999,9245,0.0013337,0.00031601,0,3841853,0 SPACEBEE-102,1 48886U 21059H   23057.31019624  .00031601  00000-0  13337-2 0  9994,2 48886  97.5788 192.0869 0007442 299.4550  60.5944 15.23196340 92458,2021-059H,48886,6874.344,94.538,501.325,491.093,0,
GENERATED VIA SPACETRACK.ORG API,18 SPCS,48886,SPACEBEE-102,PAYLOAD,U,21059H,2023/2/27 8:40,409184,15.23270302,0.0007424,97.5787,193.148,295.7684,64.2786,0,999,9261,0.0017146,0.00040786,0,3845539,0 SPACEBEE-102,1 48886U 21059H   23058.36126631  .00040786  00000-0  17146-2 0  9993,2 48886  97.5787 193.1480 0007424 295.7684  64.2786 15.23270302 92619,2021-059H,48886,6874.121,94.533,501.09,490.883,0,
GENERATED VIA SPACETRACK.ORG API,18 SPCS,48886,SPACEBEE-102,PAYLOAD,U,21059H,2023/2/27 8:40,409184,15.23270302,0.0007424,97.5787,193.148,295.7684,64.2786,0,999,9261,0.0017146,0.00040786,0,3846396,0 SPACEBEE-102,1 48886U 21059H   23058.36126631  .00040786  00000-0  17146-2 0  9993,2 48886  97.5787 193.1480 0007424 295.7684  64.2786 15.23270302 92619,2021-059H,48886,6874.121,94.533,501.09,490.883,0,
GENERATED VIA SPACETRACK.ORG API,18 SPCS,48886,SPACEBEE-102,PAYLOAD,U,21059H,2023/2/27 21:16,595872,15.23322749,0.0007396,97.5786,193.6783,293.3463,66.6995,0,999,9269,0.0019703,0.00046991,0,3847140,0 SPACEBEE-102,1 48886U 21059H   23058.88677773  .00046991  00000-0  19703-2 0  9993,2 48886  97.5786 193.6783 0007396 293.3463  66.6995 15.23322749 92695,2021-059H,48886,6873.964,94.53,500.912,490.745,0,
GENERATED VIA SPACETRACK.ORG API,18 SPCS,48886,SPACEBEE-102,PAYLOAD,U,21059H,2023/2/28 8:19,113344,15.23360889,0.0007445,97.5785,194.1427,291.9546,68.0899,0,999,9276,0.0017544,0.00041852,0,3847542,0 SPACEBEE-102,1 48886U 21059H   23059.34658696  .00041852  00000-0  17544-2 0  9990,2 48886  97.5785 194.1427 0007445 291.9546  68.0899 15.23360889 92760,2021-059H,48886,6873.849,94.528,500.831,490.596,0,
GENERATED VIA SPACETRACK.ORG API,18 SPCS,48886,SPACEBEE-102,PAYLOAD,U,21059H,2023/2/28 20:55,910208,15.23391697,0.0007471,97.5783,194.6733,290.0895,69.9537,0,999,9284,0.0011669,0.00027786,0,3847656,0 SPACEBEE-102,1 48886U 21059H   23059.87207072  .00027786  00000-0  11669-2 0  9998,2 48886  97.5783 194.6733 0007471 290.0895  69.9537 15.23391697 92848,2021-059H,48886,6873.756,94.526,500.756,490.486,0,
GENERATED VIA SPACETRACK.ORG API,18 SPCS,48886,SPACEBEE-102,PAYLOAD,U,21059H,2023/2/28 22:30,68288,15.23395412,0.0007469,97.5782,194.7396,289.7916,70.2515,0,999,9285,0.0011506,0.00027398,0,3847792,0 SPACEBEE-102,1 48886U 21059H   23059.93775542  .00027398  00000-0  11506-2 0  9996,2 48886  97.5782 194.7396 0007469 289.7916  70.2515 15.23395412 92850,2021-059H,48886,6873.745,94.526,500.744,490.476,0,
GENERATED VIA SPACETRACK.ORG API,18 SPCS,48886,SPACEBEE-102,PAYLOAD,U,21059H,2023/3/1 18:59,586272,15.23454249,0.0007471,97.5778,195.6015,286.6673,73.3743,0,999,9298,0.0012822,0.00030607,0,3848700,0 SPACEBEE-102,1 48886U 21059H   23060.79163873  .00030607  00000-0  12822-2 0  9999,2 48886  97.5778 195.6015 0007471 286.6673  73.3743 15.23454249 92987,2021-059H,48886,6873.568,94.522,500.568,490.298,0,
GENERATED VIA SPACETRACK.ORG API,18 SPCS,48886,SPACEBEE-102,PAYLOAD,U,21059H,2023/3/1 20:34,519712,15.23457372,0.0007487,97.5779,195.6678,286.4417,73.5996,0,999,9299,0.0012146,0.00028986,0,3848834,0 SPACEBEE-102,1 48886U 21059H   23060.85732083  .00028986  00000-0  12146-2 0  9997,2 48886  97.5779 195.6678 0007487 286.4417  73.5996 15.23457372 92997,2021-059H,48886,6873.559,94.522,500.57,490.277,0,
GENERATED VIA SPACETRACK.ORG API,18 SPCS,48886,SPACEBEE-102,PAYLOAD,U,21059H,2023/3/2 7:36,572544,15.23488581,0.0007481,97.5779,196.1321,284.7654,75.2753,0,999,9306,0.0013003,0.00031073,0,3849487,0 SPACEBEE-102,1 48886U 21059H   23061.31708996  .00031073  00000-0  13003-2 0  9999,2 48886  97.5779 196.1321 0007481 284.7654  75.2753 15.23488581 93061,2021-059H,48886,6873.465,94.52,500.472,490.188,0,
GENERATED VIA SPACETRACK.ORG API,18 SPCS,48886,SPACEBEE-102,PAYLOAD,U,21059H,2023/3/3 8:49,166848,15.23575471,0.0007412,97.5784,197.1939,281.1676,78.8728,0,999,9322,0.0018622,0.00044729,0,3849819,0 SPACEBEE-102,1 48886U 21059H   23062.36795332  .00044729  00000-0  18622-2 0  9999,2 48886  97.5784 197.1939 0007412 281.1676  78.8728 15.23575471 93226,2021-059H,48886,6873.203,94.515,500.163,489.974,0,
